24967,IRIDIUM 36,1997,100.18,-1.0,-,86.4,Inactive,0,LEO,USA,USA,Unknown,Unknown,Unknown,1 24967U 97056C   25009.15760976  .00000740  00000+0  24164-3 0  9992,2 24967  86.3951 239.7574 0002006  91.7304 268.4123 14.37345113429374,14.37345113,0.0002006,LEO
25042,IRIDIUM 39,1997,99.39,-1.0,-,86.39,Inactive,0,LEO,USA,USA,Unknown,Unknown,Unknown,1 25042U 97069D   25009.23218653  .00001230  00000+0  31963-3 0  9990,2 25042  86.3910 279.2915 0019873 114.0953 246.2332 14.48811758425941,14.48811758,0.0019873,LEO
25043,IRIDIUM 38,1997,100.15,-1.0,-,86.4,Inactive,0,LEO,USA,USA,Unknown,Unknown,Unknown,1 25043U 97069E   25009.30583520  .00000929  00000+0  30178-3 0  9998,2 25043  86.3967 300.0255 0000373 104.7106 255.4134 14.37848906423386,14.37848906,3.73e-05,LEO
25077,IRIDIUM 42,1997,100.27,-1.0,-,86.4,Inactive,0,LEO,PRC,USA,Unknown,Unknown,Unknown,1 25077U 97077A   25009.81478481  .00000819  00000+0  27471-3 0  9999,2 25077  86.3972 305.7873 0001522  79.7392 280.3977 14.36106068418462,14.36106068,0.0001522,LEO
25078,IRIDIUM 44,1997,100.0,-1.0,-,86.4,Inactive,0,LEO,PRC,USA,Unknown,Unknown,Unknown,1 25078U 97077B   25009.29242088  .00000840  00000+0  26062-3 0  9993,2 25078  86.3957 288.3438 0002425 130.9128 229.2281 14.39973845420864,14.39973845,0.0002425,LEO
25104,IRIDIUM 45,1997,95.08,-1.0,-,86.36,Inactive,0,LEO,USA,USA,Unknown,Unknown,Unknown,1 25104U 97082A   25009.31944563  .00029735  00000+0  12870-2 0  9994,2 25104  86.3636 124.5887 0133706 203.2894 156.2255 15.14455756428181,15.14455756,0.0133706,LEO
25105,IRIDIUM 24,1997,99.87,-1.0,-,86.39,Inactive,0,LEO,USA,USA,Unknown,Unknown,Unknown,1 25105U 97082B   25009.32999817  .00001025  00000+0  30777-3 0  9997,2 25105  86.3944 147.6532 0009727 237.4901 122.5359 14.41803187420323,14.41803187,0.0009727,LEO
25262,IRIDIUM 51,1998,94.31,-1.0,-,86.39,Inactive,0,LEO,PRC,USA,Unknown,Unknown,Unknown,1 25262U 98018A   25009.30553363  .00038990  00000+0  12290-2 0  9991,2 25262  86.3906 133.6831 0111577 135.0208 226.0145 15.26756719422688,15.26756719,0.0111577,LEO
